STARLINK-35476          
1 66825U 25280E   25344.75002315 -.01601430  00000+0 -70194-2 0  9994
2 66825  69.9936 204.5418 0003729 270.4103 282.4783 15.87054454  2439
STARLINK-35898          
1 66826U 25280F   25344.75002315 -.01602116  00000+0 -70080-2 0  9991
2 66826  69.9935 204.5397 0003795 269.5275 284.9348 15.87096157  2583
STARLINK-35959          
1 66827U 25280G   25344.75002315 -.01609866  00000+0 -70318-2 0  9995
2 66827  69.9933 204.5376 0003795 269.3010 287.0125 15.87138781  2581
STARLINK-35982          
1 66828U 25280H   25344.75002315 -.01620676  00000+0 -70591-2 0  9991
2 66828  69.9934 204.5330 0003751 270.7247 289.5054 15.87215168  2586
STARLINK-36084          
1 66829U 25280J   25344.75002315 -.01615030  00000+0 -70441-2 0  9994
2 66829  69.9933 204.5351 0003810 271.3474 286.9189 15.87176966  2429
STARLINK-35881          
1 66830U 25280K   25344.75002315 -.01628378  00000+0 -70807-2 0  9991
2 66830  69.9930 204.5307 0003676 269.9668 291.7888 15.87264190  2581
STARLINK-35788          
1 66831U 25280L   25344.75002315 -.01630974  00000+0 -70780-2 0  9997
2 66831  69.9937 204.5293 0003769 268.9515 294.3620 15.87306963  2584
STARLINK-35768          
1 66832U 25280M   25344.75002315 -.01630187  00000+0 -70597-2 0  9990
2 66832  69.9933 204.5270 0003748 270.0502 294.7800 15.87348269  2582
STARLINK-35858          
1 66833U 25280N   25344.75002315 -.01636461  00000+0 -70772-2 0  9997
2 66833  69.9935 204.5250 0003729 270.7614 296.0612 15.87387192  2587
STARLINK-35840          
1 66834U 25280P   25344.75002315 -.01641469  00000+0 -70856-2 0  9995
2 66834  69.9932 204.5228 0003772 270.3164 298.0805 15.87432671  2583
STARLINK-35890          
1 66835U 25280Q   25344.75002315 -.01648284  00000+0 -71042-2 0  9996
2 66835  69.9930 204.5206 0003721 269.9277 300.2566 15.87476114  2581
STARLINK-35838          
1 66836U 25280R   25344.75002315 -.01656757  00000+0 -71306-2 0  9994
2 66836  69.9928 204.5182 0003710 269.3013 302.7614 15.87519795  2586
